CTC1_L_00456001-01
1 10000U 26758Y   26075.70035880  .00000000  00000+0  00000-0 0  9999
2 10000  42.0000   0.0000 0000000   0.0000   0.0000 15.62652009    16
CTC1_L_00456002-01
1 10001U 23733QN  26075.70035880  .00000000  00000+0  00000-0 0  9990
2 10001  42.0000  12.0000 0000000   0.0000  48.0000 15.62652009    12
CTC1_L_00456003-01
1 10002U 24825EU  26075.70035880  .00000000  00000+0  00000-0 0  9994
2 10002  42.0000  24.0000 0000000   0.0000  96.0000 15.62652009    19
CTC1_L_00456004-01
1 10003U 26570RX  26075.70035880  .00000000  00000+0  00000-0 0  9994
2 10003  42.0000  36.0000 0000000   0.0000 144.0000 15.62652009    17
CTC1_L_00456005-01
1 10004U 24642SC  26075.70035880  .00000000  00000+0  00000-0 0  9993
2 10004  42.0000  48.0000 0000000   0.0000 192.0000 15.62652009    14
CTC1_L_00456006-01
1 10005U 26170EI  26075.70035880  .00000000  00000+0  00000-0 0  9992
2 10005  42.0000  60.0000 0000000   0.0000 240.0000 15.62652009    13
CTC1_L_00456007-01
1 10006U 22212MJ  26075.70035880  .00000000  00000+0  00000-0 0  9996
2 10006  42.0000  72.0000 0000000   0.0000 288.0000 15.62652009    19
CTC1_L_00456008-01
1 10007U 24347CV  26075.70035880  .00000000  00000+0  00000-0 0  9998
2 10007  42.0000  84.0000 0000000   0.0000 336.0000 15.62652009    17
CTC1_L_00456009-01
1 10008U 25109TV  26075.70035880  .00000000  00000+0  00000-0 0  9996
2 10008  42.0000  96.0000 0000000   0.0000  24.0000 15.62652009    15
CTC1_L_00456010-01
1 10009U 24495UC  26075.70035880  .00000000  00000+0  00000-0 0  9994
2 10009  42.0000 108.0000 0000000   0.0000  72.0000 15.62652009    13
CTC1_L_00456011-01
1 10010U 24884IK  26075.70035880  .00000000  00000+0  00000-0 0  9998
2 10010  42.0000 120.0000 0000000   0.0000 120.0000 15.62652009    13
CTC1_L_00456012-01
1 10011U 25049EE  26075.70035880  .00000000  00000+0  00000-0 0  9993
2 10011  42.0000 132.0000 0000000   0.0000 168.0000 15.62652009    19
CTC1_L_00456013-01
1 10012U 23258DQ  26075.70035880  .00000000  00000+0  00000-0 0  9994
2 10012  42.0000 144.0000 0000000   0.0000 216.0000 15.62652009    17
CTC1_L_00456014-01
1 10013U 22681IH  26075.70035880  .00000000  00000+0  00000-0 0  9994
2 10013  42.0000 156.0000 0000000   0.0000 264.0000 15.62652009    14
CTC1_L_00456015-01
1 10014U 26337LW  26075.70035880  .00000000  00000+0  00000-0 0  9997
2 10014  42.0000 168.0000 0000000   0.0000 312.0000 15.62652009    12
CTC1_L_00456016-01
1 10015U 25073AH  26075.70035880  .00000000  00000+0  00000-0 0  9994
2 10015  42.0000 180.0000 0000000   0.0000   0.0000 15.62652009    11
CTC1_L_00456017-01
1 10016U 24830UJ  26075.70035880  .00000000  00000+0  00000-0 0  9995
2 10016  42.0000 192.0000 0000000   0.0000  48.0000 15.62652009    17
CTC1_L_00456018-01
1 10017U 22727CF  26075.70035880  .00000000  00000+0  00000-0 0  9999
2 10017  42.0000 204.0000 0000000   0.0000  96.0000 15.62652009    15
CTC1_L_00456019-01
1 10018U 26583PM  26075.70035880  .00000000  00000+0  00000-0 0  9994
2 10018  42.0000 216.0000 0000000   0.0000 144.0000 15.62652009    13
CTC1_L_00456020-01
1 10019U 24678DK  26075.70035880  .00000000  00000+0  00000-0 0  9998
2 10019  42.0000 228.0000 0000000   0.0000 192.0000 15.62652009    10
CTC1_L_00456021-01
1 10020U 23910LM  26075.70035880  .00000000  00000+0  00000-0 0  9998
2 10020  42.0000 240.0000 0000000   0.0000 240.0000 15.62652009    10
CTC1_L_00456022-01
1 10021U 23522TY  26075.70035880  .00000000  00000+0  00000-0 0  9998
2 10021  42.0000 252.0000 0000000   0.0000 288.0000 15.62652009    16
CTC1_L_00456023-01
1 10022U 24951WT  26075.70035880  .00000000  00000+0  00000-0 0  9996
2 10022  42.0000 264.0000 0000000   0.0000 336.0000 15.62652009    14
CTC1_L_00456024-01
1 10023U 25811QN  26075.70035880  .00000000  00000+0  00000-0 0  9993
2 10023  42.0000 276.0000 0000000   0.0000  24.0000 15.62652009    12
CTC1_L_00456025-01
1 10024U 22234JH  26075.70035880  .00000000  00000+0  00000-0 0  9990
2 10024  42.0000 288.0000 0000000   0.0000  72.0000 15.62652009    19
CTC1_L_00456026-01
1 10025U 24865AD  26075.70035880  .00000000  00000+0  00000-0 0  9993
2 10025  42.0000 300.0000 0000000   0.0000 120.0000 15.62652009    19
CTC1_L_00456027-01
1 10026U 25009BG  26075.70035880  .00000000  00000+0  00000-0 0  9995
2 10026  42.0000 312.0000 0000000   0.0000 168.0000 15.62652009    15
CTC1_L_00456028-01
1 10027U 23543B   26075.70035880  .00000000  00000+0  00000-0 0  9997
2 10027  42.0000 324.0000 0000000   0.0000 216.0000 15.62652009    13
CTC1_L_00456029-01
1 10028U 26496TC  26075.70035880  .00000000  00000+0  00000-0 0  9998
2 10028  42.0000 336.0000 0000000   0.0000 264.0000 15.62652009    10
CTC1_L_00456030-01
1 10029U 25503XH  26075.70035880  .00000000  00000+0  00000-0 0  9997
2 10029  42.0000 348.0000 0000000   0.0000 312.0000 15.62652009    18
